{
  "norad_id": 66258,
  "name": "STARLINK-34650",
  "history": [
    {
      "epoch": "2026-03-28T15:43:36.330240Z",
      "apogee_km": 475.84582138792393,
      "perigee_km": 474.4578933285311,
      "latitude_deg": -5.824840718696749e-06,
      "longitude_deg": 133.57980881157889,
      "height_km": 475.8032257223311,
      "semi_major_axis_km": 6853.288857358227,
      "eccentricity": 0.00010126,
      "inclination_deg": 53.1568,
      "raan_deg": 195.5538,
      "arg_perigee_deg": 69.1663,
      "mean_anomaly_deg": 290.9446,
      "mean_motion_rev_day": 15.30221171
    }
  ]
}